[{"OBJECT_NAME":"CYGFM03","OBJECT_ID":"2016-078H","EPOCH":"2026-03-09T23:11:20.561280","MEAN_MOTION":15.54861223,"ECCENTRICITY":0.00057526,"INCLINATION":34.9405,"RA_OF_ASC_NODE":169.5167,"ARG_OF_PERICENTER":310.9342,"MEAN_ANOMALY":49.0883,"EPHEMERIS_TYPE":0,"CLASSIFICATION_TYPE":"U","NORAD_CAT_ID":41891,"ELEMENT_SET_NO":999,"REV_AT_EPOCH":51349,"BSTAR":0.00042675413,"MEAN_MOTION_DOT":0.0002949,"MEAN_MOTION_DDOT":0},{"OBJECT_NAME":"OBJECT Q","OBJECT_ID":"2018-099Q","EPOCH":"2026-03-09T10:49:11.167680","MEAN_MOTION":15.57553026,"ECCENTRICITY":0.00029382,"INCLINATION":97.4297,"RA_OF_ASC_NODE":143.8326,"ARG_OF_PERICENTER":208.2257,"MEAN_ANOMALY":151.8839,"EPHEMERIS_TYPE":0,"CLASSIFICATION_TYPE":"U","NORAD_CAT_ID":43772,"ELEMENT_SET_NO":999,"REV_AT_EPOCH":39901,"BSTAR":0.0013586873,"MEAN_MOTION_DOT":0.00101095,"MEAN_MOTION_DDOT":0}]
